[
    {
        "Altitude(m)": 604221.211490007,
        "Argument of Periapsis(deg)": 0.0,
        "Eccentricity": 0.0,
        "Inclination(deg)": 60.0,
        "Latitude(deg)": 14.117286701253153,
        "Longitude(deg)": -176.665824780074,
        "Mean Anomaly(deg)": 16.363599999999984,
        "RAAN(deg)": 275.0,
        "Satellite Name": "Test1 1211",
        "Satellite Number": 1211,
        "Semi-Major Axis(m)": 6980739.136638005,
        "Time(s)": 0
    },
    {
        "Altitude(m)": 604235.352571735,
        "Argument of Periapsis(deg)": 0.00010418945913296404,
        "Eccentricity": 0.0,
        "Inclination(deg)": 60.0,
        "Latitude(deg)": 14.651683028613865,
        "Longitude(deg)": -176.37737693639912,
        "Mean Anomaly(deg)": 16.983706145461838,
        "RAAN(deg)": 274.9995799508602,
        "Satellite Name": "Test1 1211",
        "Satellite Number": 1211,
        "Semi-Major Axis(m)": 6980739.136638005,
        "Time(s)": 10
    }
]